{
  "type": "FeatureCollection",
  "features": [
    {
      "type": "Feature",
      "properties": {
        "norad_id": 33924,
        "name": "COSMOS 2251 DEB",
        "group": "cosmos-2251-debris",
        "lat": -49.32267745132847,
        "lon": -103.23729835339816,
        "alt_km": 777.7782976275257,
        "timestamp": "2025-12-08T21:31:05.059512+00:00",
        "meta_object_name": "COSMOS 2251 DEB",
        "meta_object_id": "1993-036ED",
        "meta_epoch": "2025-12-08T05:45:15.708096",
        "meta_mean_motion": 13.50212784,
        "meta_eccentricity": 0.04040634,
        "meta_inclination": 73.9143,
        "meta_ra_of_asc_node": 277.4345,
        "meta_arg_of_pericenter": 313.6796,
        "meta_mean_anomaly": 43.1469,
        "meta_ephemeris_type": 0,
        "meta_classification_type": "U",
        "meta_norad_cat_id": 33924,
        "meta_element_set_no": 999,
        "meta_rev_at_epoch": 82678,
        "meta_bstar": 0.0018170896,
        "meta_mean_motion_dot": 1.904e-05,
        "meta_mean_motion_ddot": 0,
        "tle_line1": "1 33924U 93036ED  25342.23976514  .00001904  00000+0  18171-2 0  9998",
        "tle_line2": "2 33924  73.9143 277.4345 0404063 313.6796  43.1469 13.50212784826785"
      },
      "geometry": {
        "type": "Point",
        "coordinates": [
          -103.23729835339816,
          -49.32267745132847
        ]
      }
    },
    {
      "type": "Feature",
      "properties": {
        "norad_id": 33928,
        "name": "COSMOS 2251 DEB",
        "group": "cosmos-2251-debris",
        "lat": -40.136871359910295,
        "lon": 45.73039706477714,
        "alt_km": 705.334834100001,
        "timestamp": "2025-12-08T21:31:05.059523+00:00",
        "meta_object_name": "COSMOS 2251 DEB",
        "meta_object_id": "1993-036EH",
        "meta_epoch": "2025-12-08T15:04:29.461728",
        "meta_mean_motion": 14.47393927,
        "meta_eccentricity": 0.00612601,
        "meta_inclination": 73.9261,
        "meta_ra_of_asc_node": 60.306,
        "meta_arg_of_pericenter": 355.3115,
        "meta_mean_anomaly": 4.746,
        "meta_ephemeris_type": 0,
        "meta_classification_type": "U",
        "meta_norad_cat_id": 33928,
        "meta_element_set_no": 999,
        "meta_rev_at_epoch": 88585,
        "meta_bstar": 0.00047191475,
        "meta_mean_motion_dot": 1.743e-05,
        "meta_mean_motion_ddot": 0,
        "tle_line1": "1 33928U 93036EH  25342.62811877  .00001743  00000+0  47191-3 0  9991",
        "tle_line2": "2 33928  73.9261  60.3060 0061260 355.3115   4.7460 14.47393927885852"
      },
      "geometry": {
        "type": "Point",
        "coordinates": [
          45.73039706477714,
          -40.136871359910295
        ]
      }
    },
    {
      "type": "Feature",
      "properties": {
        "norad_id": 33932,
        "name": "COSMOS 2251 DEB",
        "group": "cosmos-2251-debris",
        "lat": -33.997503938039294,
        "lon": 154.13846889455078,
        "alt_km": 793.4649038915632,
        "timestamp": "2025-12-08T21:31:05.059534+00:00",
        "meta_object_name": "COSMOS 2251 DEB",
        "meta_object_id": "1993-036EM",
        "meta_epoch": "2025-12-08T08:50:22.543008",
        "meta_mean_motion": 14.38738364,
        "meta_eccentricity": 0.00350852,
        "meta_inclination": 74.0346,
        "meta_ra_of_asc_node": 323.9798,
        "meta_arg_of_pericenter": 41.3813,
        "meta_mean_anomaly": 318.9989,
        "meta_ephemeris_type": 0,
        "meta_classification_type": "U",
        "meta_norad_cat_id": 33932,
        "meta_element_set_no": 999,
        "meta_rev_at_epoch": 87935,
        "meta_bstar": 0.00084668797,
        "meta_mean_motion_dot": 2.593e-05,
        "meta_mean_motion_ddot": 0,
        "tle_line1": "1 33932U 93036EM  25342.36831647  .00002593  00000+0  84669-3 0  9999",
        "tle_line2": "2 33932  74.0346 323.9798 0035085  41.3813 318.9989 14.38738364879354"
      },
      "geometry": {
        "type": "Point",
        "coordinates": [
          154.13846889455078,
          -33.997503938039294
        ]
      }
    },
    {
      "type": "Feature",
      "properties": {
        "norad_id": 33933,
        "name": "COSMOS 2251 DEB",
        "group": "cosmos-2251-debris",
        "lat": 40.576974700922364,
        "lon": -126.99863811199619,
        "alt_km": 751.4467673398531,
        "timestamp": "2025-12-08T21:31:05.059544+00:00",
        "meta_object_name": "COSMOS 2251 DEB",
        "meta_object_id": "1993-036EN",
        "meta_epoch": "2025-12-08T14:11:12.541632",
        "meta_mean_motion": 14.3347944,
        "meta_eccentricity": 0.00707923,
        "meta_inclination": 74.0894,
        "meta_ra_of_asc_node": 67.6973,
        "meta_arg_of_pericenter": 77.3497,
        "meta_mean_anomaly": 283.5558,
        "meta_ephemeris_type": 0,
        "meta_classification_type": "U",
        "meta_norad_cat_id": 33933,
        "meta_element_set_no": 999,
        "meta_rev_at_epoch": 87725,
        "meta_bstar": 0.00056284466,
        "meta_mean_motion_dot": 1.575e-05,
        "meta_mean_motion_ddot": 0,
        "tle_line1": "1 33933U 93036EN  25342.59111738  .00001575  00000+0  56284-3 0  9998",
        "tle_line2": "2 33933  74.0894  67.6973 0070792  77.3497 283.5558 14.33479440877259"
      },
      "geometry": {
        "type": "Point",
        "coordinates": [
          -126.99863811199619,
          40.576974700922364
        ]
      }
    },
    {
      "type": "Feature",
      "properties": {
        "norad_id": 33934,
        "name": "COSMOS 2251 DEB",
        "group": "cosmos-2251-debris",
        "lat": -70.93894613830793,
        "lon": -16.1776944897589,
        "alt_km": 693.2780244540709,
        "timestamp": "2025-12-08T21:31:05.059554+00:00",
        "meta_object_name": "COSMOS 2251 DEB",
        "meta_object_id": "1993-036EP",
        "meta_epoch": "2025-12-08T15:23:44.573568",
        "meta_mean_motion": 14.5905098,
        "meta_eccentricity": 0.00158092,
        "meta_inclination": 74.0385,
        "meta_ra_of_asc_node": 108.3797,
        "meta_arg_of_pericenter": 232.0437,
        "meta_mean_anomaly": 127.9301,
        "meta_ephemeris_type": 0,
        "meta_classification_type": "U",
        "meta_norad_cat_id": 33934,
        "meta_element_set_no": 999,
        "meta_rev_at_epoch": 88679,
        "meta_bstar": 0.0016051279,
        "meta_mean_motion_dot": 7.537e-05,
        "meta_mean_motion_ddot": 0,
        "tle_line1": "1 33934U 93036EP  25342.64148812  .00007537  00000+0  16051-2 0  9999",
        "tle_line2": "2 33934  74.0385 108.3797 0015809 232.0437 127.9301 14.59050980886792"
      },
      "geometry": {
        "type": "Point",
        "coordinates": [
          -16.1776944897589,
          -70.93894613830793
        ]
      }
    },
    {
      "type": "Feature",
      "properties": {
        "norad_id": 33936,
        "name": "COSMOS 2251 DEB",
        "group": "cosmos-2251-debris",
        "lat": 8.540742725757932,
        "lon": -137.63721537045126,
        "alt_km": 676.818950213662,
        "timestamp": "2025-12-08T21:31:05.059564+00:00",
        "meta_object_name": "COSMOS 2251 DEB",
        "meta_object_id": "1993-036ER",
        "meta_epoch": "2025-12-08T14:09:33.571296",
        "meta_mean_motion": 14.60229663,
        "meta_eccentricity": 0.00278287,
        "meta_inclination": 74.0188,
        "meta_ra_of_asc_node": 45.4151,
        "meta_arg_of_pericenter": 201.6236,
        "meta_mean_anomaly": 158.3757,
        "meta_ephemeris_type": 0,
        "meta_classification_type": "U",
        "meta_norad_cat_id": 33936,
        "meta_element_set_no": 999,
        "meta_rev_at_epoch": 88829,
        "meta_bstar": 0.0011615683,
        "meta_mean_motion_dot": 5.607e-05,
        "meta_mean_motion_ddot": 0,
        "tle_line1": "1 33936U 93036ER  25342.58997189  .00005607  00000+0  11616-2 0  9991",
        "tle_line2": "2 33936  74.0188  45.4151 0027828 201.6236 158.3757 14.60229663888291"
      },
      "geometry": {
        "type": "Point",
        "coordinates": [
          -137.63721537045126,
          8.540742725757932
        ]
      }
    },
    {
      "type": "Feature",
      "properties": {
        "norad_id": 33938,
        "name": "COSMOS 2251 DEB",
        "group": "cosmos-2251-debris",
        "lat": -29.56274507333199,
        "lon": 43.690221023208935,
        "alt_km": 740.903167040381,
        "timestamp": "2025-12-08T21:31:05.059575+00:00",
        "meta_object_name": "COSMOS 2251 DEB",
        "meta_object_id": "1993-036ET",
        "meta_epoch": "2025-12-08T15:43:11.580960",
        "meta_mean_motion": 14.46775692,
        "meta_eccentricity": 0.00168509,
        "meta_inclination": 74.0451,
        "meta_ra_of_asc_node": 214.8024,
        "meta_arg_of_pericenter": 297.2857,
        "meta_mean_anomaly": 95.8866,
        "meta_ephemeris_type": 0,
        "meta_classification_type": "U",
        "meta_norad_cat_id": 33938,
        "meta_element_set_no": 999,
        "meta_rev_at_epoch": 88341,
        "meta_bstar": 0.00077331612,
        "meta_mean_motion_dot": 2.778e-05,
        "meta_mean_motion_ddot": 0,
        "tle_line1": "1 33938U 93036ET  25342.65499515  .00002778  00000+0  77332-3 0  9995",
        "tle_line2": "2 33938  74.0451 214.8024 0016850 297.2857  95.8866 14.46775692883417"
      },
      "geometry": {
        "type": "Point",
        "coordinates": [
          43.690221023208935,
          -29.56274507333199
        ]
      }
    }
  ]
}